LEMUR-1                 
1 40044U 14033AL  26061.89948769  .00003271  00000+0  38359-3 0  9991
2 40044  97.7698 214.1930 0049843  67.6992 292.9496 14.84754513629692
LEMUR-2-GREENBERG       
1 42837U 17042N   26061.91250525  .00021065  00000+0  77959-3 0  9995
2 42837  97.3761 243.3188 0009501  26.9969 333.1763 15.27658267472147
LEMUR-2-ANDIS           
1 42838U 17042P   26061.56305751  .00025783  00000+0  88316-3 0  9999
2 42838  97.3646 242.8552 0009532  28.5723 331.6038 15.30149495472127
LEMUR-2-MONSON          
1 42839U 17042Q   26061.96535278  .00018895  00000+0  76492-3 0  9991
2 42839  97.4017 243.4809 0006957  16.1654 343.9805 15.24711763471962
LEMUR-2-FURIAUS         
1 42840U 17042R   26061.94538897  .00027193  00000+0  10619-2 0  9990
2 42840  97.3735 241.5769 0007626  80.8015 279.4086 15.25837479471987
LEMUR-2-PETERG          
1 42841U 17042S   26061.93979099  .00023084  00000+0  81387-3 0  9999
2 42841  97.3963 247.1508 0003997   4.7050 355.4227 15.29267884472170
LEMUR-2-DEMBITZ         
1 42842U 17042T   26061.92100696  .00021765  00000+0  83127-3 0  9996
2 42842  97.3791 244.4456 0007217  39.6825 320.4941 15.26626062472111
LEMUR-2-ZACHARY         
1 42845U 17042W   26061.90211220  .00047399  00000+0  11336-2 0  9996
2 42845  97.3649 251.9337 0003752  42.7474 317.4065 15.41324709472788
LEMUR-2-JIN-LUEN        
1 43182U 18014C   26061.74827622  .00224550  00000+0  14377-2 0  9996
2 43182  97.5453 351.3973 0001707  93.9946 266.1514 15.75656413444379
LEMUR-2-KADI            
1 43184U 18014E   26061.75617229  .00098912  00000+0  10984-2 0  9990
2 43184  97.4722 346.0306 0001246  42.6680 317.4675 15.62593856444302
LEMUR-2-AMANDA-SVANTE   
1 48269U 21034B   26061.77024716  .00029345  00000+0  10752-2 0  9997
2 48269  97.5850 137.7305 0002038 228.3981 131.7084 15.27961909264776
LEMUR-2-SPECIAL-K       
1 48273U 21034F   26061.78531541  .00069085  00000+0  14973-2 0  9996
2 48273  97.5733 142.8051 0001365 222.4012 137.7131 15.44178488265173
LEMUR-2-EMBRIONOVIS     
1 56970U 23084AQ  26061.95480783  .00009224  00000+0  27818-3 0  9998
2 56970  97.6116 202.4210 0008664 338.8061  21.2821 15.34499109151371
LEMUR-2-MANO            
1 57390U 23100E   26061.96463555  .00139140  00000+0  17822-2 0  9997
2 57390  99.4558  82.2798 0002571  60.6909 299.4597 15.58694395145434
LEMUR-2-DEVERILL-M-T    
1 57391U 23100F   26061.99927921  .00031581  00000+0  95063-3 0  9997
2 57391  99.4573  70.5637 0008784  48.1198 312.0787 15.34281705144935
LEMUR-2-BASS            
1 58259U 23174D   26061.74062167  .00019950  00000+0  50999-3 0  9992
2 58259  97.3899 145.2404 0007873 185.8810 174.2344 15.39453855128961
LEMUR-2-JK0903EM1407    
1 58336U 23174CJ  26061.81375270  .00027787  00000+0  56516-3 0  9996
2 58336  97.3934 149.7539 0006317 138.2952 221.8780 15.46242605129260
LEMUR-2-MJR092620       
1 58340U 23174CN  26061.82385128  .00014184  00000+0  33526-3 0  9998
2 58340  97.4000 150.1573 0008011 136.1466 224.0418 15.41908911129249
LEMUR-2-NIMBUS2000      
1 58899U 24022A   26061.65845429  .00020131  00000+0  56659-3 0  9997
2 58899  97.4233 270.5078 0010359 136.1189 224.0880 15.36451701115896
LEMUR-2-VALHALLA        
1 58900U 24022B   26061.57138123  .00019546  00000+0  55436-3 0  9997
2 58900  97.4232 270.4562 0010961 132.3573 227.8601 15.36212032115882
LEMUR-2-OBA-NI-JESU     
1 58902U 24022D   26061.56803385  .00096961  00000+0  10291-2 0  9992
2 58902  97.4071 279.2684 0005262  91.4411 268.7450 15.63749344116485
LEMUR-2-CAEL            
1 58903U 24022E   26061.66444136  .00020136  00000+0  55080-3 0  9996
2 58903  97.4218 271.3129 0009399 116.3247 243.8964 15.37349503115954
LEMUR-2-JOHNNYTRUONG    
1 59146U 24043BA  26061.95044822  .00041646  00000+0  67859-3 0  9995
2 59146  97.5245 207.7909 0005337 207.6830 152.4138 15.52505666111511
LEMUR-2-TOMATOKECHUP    
1 60471U 24149D   26061.77618547  .00014388  00000+0  44589-3 0  9994
2 60471  97.3861 143.7212 0000867 207.4885 152.6312 15.33536821 85841
LEMUR-2-STELLA          
1 60533U 24149BT  26061.83185993  .00014713  00000+0  92755-3 0  9994
2 60533  97.6790 144.0095 0001520  96.4229 263.7173 15.09234270 84442
LEMUR-2-MARHISYAM       
1 60536U 24149BW  26061.77728897  .00014374  00000+0  91740-3 0  9992
2 60536  97.6931 144.2874 0003239 124.0615 236.0921 15.08784487 84426
LEMUR-2-AHMED-ASRAR     
1 60576U 24149DN  26061.77586201  .00014478  00000+0  89019-3 0  9998
2 60576  97.7047 145.9871 0002195  40.1325 320.0065 15.10151355 84495
LEMUR-2-LLOYD           
1 60577U 24149DP  26061.75406379  .00012347  00000+0  82838-3 0  9999
2 60577  97.6811 142.9868 0005130 142.1572 218.0017 15.06971902 84357
LEMUR-2-SQUIRRELCOMM    
1 60578U 24149DQ  26061.78317677  .00009049  00000+0  62882-3 0  9997
2 60578  97.6762 143.1200 0006325  62.0456 298.1410 15.05742007 84384
LEMUR-2-SIERRINI        
1 60579U 24149DR  26061.77795069  .00014713  00000+0  94733-3 0  9996
2 60579  97.6891 144.0826 0006094 171.1107 189.0230 15.08445525 84409
LEMUR-2-WILSON          
1 62694U 25009CP  26061.80256833  .00002945  00000+0  27710-3 0  9992
2 62694  97.7087 142.1529 0003957  51.3376 308.8198 14.94628508 61461
LEMUR-2-STAR-FOX        
1 62696U 25009CR  26061.74533087  .00011819  00000+0  93679-3 0  9993
2 62696  97.7066 144.2474 0002128 166.0794 194.0489 15.00703535 61582
LEMUR-2-ARIANNA         
1 62699U 25009CU  26061.80688451  .00009372  00000+0  74349-3 0  9993
2 62699  97.7031 144.1734 0004359 159.9777 200.1619 15.00727041 61598
LEMUR-2-ALISIA          
1 62706U 25009DB  26061.73832303  .00009717  00000+0  76520-3 0  9997
2 62706  97.7075 144.7546 0006256 174.9664 185.1624 15.00991747 84186
LEMUR-2-ROUNDTRIPPER    
1 62711U 25009DG  26061.76633823  .00010700  00000+0  82226-3 0  9996
2 62711  97.7310 144.7342 0004572 145.0716 215.0809 15.01906856 61646
LEMUR-2-MYNAMEISJEFF    
1 62712U 25009DH  26061.76485381  .00010591  00000+0  81422-3 0  9996
2 62712  97.7360 145.0505 0003691 173.5484 186.5789 15.01894881 61649
LEMUR-2-LEIA-PHILIP     
1 63246U 25052AN  26061.92911195  .00007418  00000+0  65707-3 0  9994
2 63246  97.6978 315.6358 0002559 196.8612 163.2525 14.96530618 52772
LEMUR-2-LIA-MARTIN      
1 63248U 25052AQ  26061.68385168  .00006358  00000+0  56163-3 0  9992
2 63248  97.7024 315.7505 0002899 161.1851 198.9478 14.96697324 52746
LEMUR-2-DELOITTE-1      
1 63259U 25052BB  26061.65260450  .00006499  00000+0  57390-3 0  9996
2 63259  97.7056 316.0309 0003219  93.0622 267.0968 14.96700379 52753
LEMUR-2-EMERSONROSE     
1 63261U 25052BD  26061.93268491  .00006994  00000+0  59500-3 0  9998
2 63261  97.7048 316.6527 0003417  66.2901 293.8680 14.98125988 52822
LEMUR-2-MARACHE-FRAN    
1 63262U 25052BE  26061.69904490  .00007792  00000+0  65141-3 0  9993
2 63262  97.7008 316.6107 0002401  41.8962 318.2444 14.98767634 52809
LEMUR-2-THEFALCONER     
1 63264U 25052BG  26061.66312239  .00005494  00000+0  48954-3 0  9996
2 63264  97.7005 315.7768 0002943  38.9181 321.2252 14.96412267 52754
LEMUR-2-UNTITLED-SC     
1 63351U 25061A   26061.88011475  .00006564  00000+0  37835-3 0  9990
2 63351  97.5542  38.1436 0017284 272.3566  87.5686 15.12605287 51519
LEMUR-2-ESPERANZA       
1 63352U 25061B   26061.92939569  .00005730  00000+0  33014-3 0  9998
2 63352  97.5550  38.2622 0016739 271.5504  88.3810 15.12684435 51525
LEMUR-2-KREMPEL-BRO2    
1 63353U 25061C   26061.92016868  .00005581  00000+0  31796-3 0  9996
2 63353  97.5597  38.6514 0017624 263.4858  96.4366 15.13087400 51534
LEMUR-2-THERMORAPTOR    
1 63354U 25061D   26061.90713873  .00005449  00000+0  30990-3 0  9993
2 63354  97.5601  38.6953 0017398 262.3445  97.5810 15.13163338 51537
LEMUR-2-NEUROSPICY      
1 63355U 25061E   26061.88679774  .00007878  00000+0  44523-3 0  9997
2 63355  97.5524  38.3843 0015318 266.7206  93.2273 15.13273399 51535
LEMUR-2-TILLINFINITY    
1 63356U 25061F   26061.89689941  .00006033  00000+0  33627-3 0  9991
2 63356  97.5512  38.6107 0016547 253.5940 106.3472 15.13850056 51553
LEMUR-2-KREMPEL-BRO1    
1 63357U 25061G   26061.92337078  .00005507  00000+0  30867-3 0  9995
2 63357  97.5518  38.5812 0017141 254.5227 105.4111 15.13684195 51551
LEMUR-2-LANGER2SPACE    
1 63358U 25061H   26061.92859877  .00005767  00000+0  32613-3 0  9991
2 63358  97.5521  38.4436 0015087 264.6286  95.3224 15.13370835 51545
LEMUR-2-BALTO           
1 63395U 25052BH  26061.95234648  .00007000  00000+0  58510-3 0  9994
2 63395  97.7009 316.8579 0003168  18.7287 341.4052 14.98813347 52846
